NORAD_CAT_ID,OBJECT_NAME,OBJECT_TYPE,EPOCH,MEAN_MOTION,ECCENTRICITY,INCLINATION,RA_OF_ASC_NODE,ARG_OF_PERICENTER,MEAN_ANOMALY,BSTAR,MEAN_MOTION_DOT,MEAN_MOTION_DDOT,TLE_LINE0,TLE_LINE1,TLE_LINE2,SEMIMAJOR_AXIS,PERIOD,APOGEE,PERIGEE,DECAYED
49753.0,STARLINK-3200,PAYLOAD,2021-12-22 14:00:01,15.40406708,0.0001489,53.2155,224.7574,52.1413,155.0139,-0.00021093,-9.051e-05,0.0,0 STARLINK-3200,1 49753U 21115AF  21356.58334491 -.00009051  00000-0 -21093-3 0  9997,2 49753  53.2155 224.7574 0001489  52.1413 155.0139 15.40406708  3484,6823.045,93.482,445.926,443.894,0.0
49753.0,STARLINK-3200,PAYLOAD,2021-12-22 20:00:01,15.40482126,0.0001493,53.2132,223.5813,46.1914,108.1355,-0.0012903,-0.00053134,0.0,0 STARLINK-3200,1 49753U 21115AF  21356.83334491 -.00053134  00000-0 -12903-2 0  9995,2 49753  53.2132 223.5813 0001493  46.1914 108.1355 15.40482126  4327,6822.821999999999,93.477,445.706,443.669,0.0
49753.0,STARLINK-3200,PAYLOAD,2021-12-22 22:00:00,15.40460633,0.0001568,53.2132,223.1891,44.3572,212.3758,-0.00036897,-0.00015545,0.0,0 STARLINK-3200,1 49753U 21115AF  21356.91667824 -.00015545  00000-0 -36897-3 0  9996,2 49753  53.2132 223.1891 0001568  44.3572 212.3758 15.40460633  3538,6822.886,93.479,445.821,443.681,0.0
49753.0,STARLINK-3200,PAYLOAD,2021-12-23 04:00:01,15.40467297,0.0001557,53.2135,222.0112,41.9159,162.0641,-0.00033959,-0.00014345,0.0,0 STARLINK-3200,1 49753U 21115AF  21357.16668981 -.00014345  00000-0 -33959-3 0  9992,2 49753  53.2135 222.0112 0001557  41.9159 162.0641 15.40467297  4375,6822.866,93.478,445.793,443.669,0.0
49753.0,STARLINK-3200,PAYLOAD,2021-12-23 14:00:01,15.40448494,0.0001446,53.2147,220.0458,53.0564,302.8525,0.0012302,0.000505,0.0,0 STARLINK-3200,1 49753U 21115AF  21357.58334491  .00050500  00000-0  12302-2 0  9993,2 49753  53.2147 220.0458 0001446  53.0564 302.8525 15.40448494  3642,6822.922,93.479,445.773,443.8,0.0
49753.0,STARLINK-3200,PAYLOAD,2021-12-23 22:00:00,15.40467322,0.0001657,53.2154,218.477,48.5654,356.9309,-0.00070569,-0.00029318,0.0,0 STARLINK-3200,1 49753U 21115AF  21357.91667824 -.00029318  00000-0 -70569-3 0  9994,2 49753  53.2154 218.4770 0001657  48.5654 356.9309 15.40467322  3653,6822.866,93.478,445.862,443.601,0.0
49753.0,STARLINK-3200,PAYLOAD,2021-12-24 06:00:00,15.4046607,0.000162,53.2153,216.9058,47.5589,47.5111,-0.0014993,-0.00061575,0.0,0 STARLINK-3200,1 49753U 21115AF  21358.25001157 -.00061575  00000-0 -14993-2 0  9992,2 49753  53.2153 216.9058 0001620  47.5589  47.5111 15.40466070  4542,6822.87,93.478,445.84,443.629,0.0
49753.0,STARLINK-3200,PAYLOAD,2021-12-24 14:00:01,15.40413234,0.0001583,53.2158,215.3339,56.3732,88.2588,0.0011265999999999,0.00046132,0.0,0 STARLINK-3200,1 49753U 21115AF  21358.58334491  .00046132  00000-0  11266-2 0  9998,2 49753  53.2158 215.3339 0001583  56.3732  88.2588 15.40413234  3619,6823.026,93.481,445.971,443.811,0.0
49753.0,STARLINK-3200,PAYLOAD,2021-12-24 22:00:00,15.40434338,0.0001773,53.2159,213.7653,49.28100000000001,144.9052,0.00049122,0.00019832,0.0,0 STARLINK-3200,1 49753U 21115AF  21358.91667824  .00019832  00000-0  49122-3 0  9994,2 49753  53.2159 213.7653 0001773  49.2810 144.9052 15.40434338  4648,6822.9630000000025,93.48,446.038,443.619,0.0
49753.0,STARLINK-3200,PAYLOAD,2021-12-25 14:00:01,15.40466491,0.0001648,53.2165,210.6222,55.0384,238.2985,0.00077302,0.00031522,0.0,0 STARLINK-3200,1 49753U 21115AF  21359.58334491  .00031522  00000-0  77302-3 0  9990,2 49753  53.2165 210.6222 0001648  55.0384 238.2985 15.40466491  3630,6822.869000000002,93.478,445.858,443.609,0.0
49753.0,STARLINK-3200,PAYLOAD,2021-12-25 22:00:00,15.4046675,0.0001818,53.2166,209.0536,48.0356,294.9135,-0.00024067,-0.00010289,0.0,0 STARLINK-3200,1 49753U 21115AF  21359.91667824 -.00010289  00000-0 -24067-3 0  9995,2 49753  53.2166 209.0536 0001818  48.0356 294.9135 15.40466750  3635,6822.868,93.478,445.973,443.492,0.0
49753.0,STARLINK-3200,PAYLOAD,2021-12-26 06:00:02,15.40493458,0.0001684,53.2167,207.482,45.1542,347.4439,-0.0014456,-0.00059455,0.0,0 STARLINK-3200,1 49753U 21115AF  21360.25002315 -.00059455  00000-0 -14456-2 0  9990,2 49753  53.2167 207.4820 0001684  45.1542 347.4439 15.40493458  4851,6822.7890000000025,93.477,445.80300000000005,443.505,0.0
49753.0,STARLINK-3200,PAYLOAD,2021-12-26 14:00:01,15.40450768,0.000162,53.2169,205.9105,50.4046,31.7318,0.00065988,0.00026819,0.0,0 STARLINK-3200,1 49753U 21115AF  21360.58334491  .00026819  00000-0  65988-3 0  9992,2 49753  53.2169 205.9105 0001620  50.4046  31.7318 15.40450768  3619,6822.915,93.479,445.885,443.675,0.0
49753.0,STARLINK-3200,PAYLOAD,2021-12-26 22:00:00,15.40456951,0.0001803,53.2168,204.342,43.7088,88.0182,0.00039549,0.00015892,0.0,0 STARLINK-3200,1 49753U 21115AF  21360.91667824  .00015892  00000-0  39549-3 0  9991,2 49753  53.2168 204.3420 0001803  43.7088  88.0182 15.40456951  4957,6822.897,93.479,445.992,443.532,0.0
49753.0,STARLINK-3200,PAYLOAD,2021-12-27 14:00:01,15.404557999999998,0.0001583,53.2165,201.1993,48.7904,182.1053,0.00042101,0.00016945,0.0,0 STARLINK-3200,1 49753U 21115AF  21361.58334491  .00016945  00000-0  42101-3 0  9994,2 49753  53.2165 201.1993 0001583  48.7904 182.1053 15.40455800  5058,6822.9,93.479,445.845,443.685,0.0
49753.0,STARLINK-3200,PAYLOAD,2021-12-27 22:00:00,15.40446804,0.0001819,53.2163,199.6307,42.735,237.7506,0.00060928,0.00024721,0.0,0 STARLINK-3200,1 49753U 21115AF  21361.91667824  .00024721  00000-0  60928-3 0  9998,2 49753  53.2163 199.6307 0001819  42.7350 237.7506 15.40446804  3633,6822.927,93.479,446.033,443.551,0.0
49753.0,STARLINK-3200,PAYLOAD,2021-12-28 14:00:01,15.40465171,0.0001531999999999,53.216,196.4879,47.441,332.2368,6.0646e-05,2.092e-05,0.0,0 STARLINK-3200,1 49753U 21115AF  21362.58334491  .00002092  00000-0  60646-4 0  9998,2 49753  53.2160 196.4879 0001532  47.4410 332.2368 15.40465171  5211,6822.871999999999,93.478,445.783,443.692,0.0
49753.0,STARLINK-3200,PAYLOAD,2021-12-28 22:00:00,15.40447498,0.0001730999999999,53.2158,194.9192,41.3004,27.9732,0.00072595,0.00029552,0.0,0 STARLINK-3200,1 49753U 21115AF  21362.91667824  .00029552  00000-0  72595-3 0  9999,2 49753  53.2158 194.9192 0001731  41.3004  27.9732 15.40447498  3631,6822.925,93.479,445.971,443.609,0.0
49753.0,STARLINK-3200,PAYLOAD,2021-12-29 14:00:01,15.40459304,0.0001634,53.2158,191.7763,50.7617,117.7507,0.00016316,6.311e-05,0.0,0 STARLINK-3200,1 49753U 21115AF  21363.58335648  .00006311  00000-0  16316-3 0  9996,2 49753  53.2158 191.7763 0001634  50.7617 117.7507 15.40459304  5365,6822.89,93.479,445.87,443.64,0.0
49753.0,STARLINK-3200,PAYLOAD,2021-12-29 22:00:00,15.40437517,0.0001837,53.2158,190.2076,43.4747,174.563,0.0010267,0.00042017,0.0,0 STARLINK-3200,1 49753U 21115AF  21363.91667824  .00042017  00000-0  10267-2 0  9998,2 49753  53.2158 190.2076 0001837  43.4747 174.5630 15.40437517  3632,6822.954000000002,93.48,446.072,443.566,0.0
49753.0,STARLINK-3200,PAYLOAD,2021-12-30 14:00:01,15.4049649,0.0001656,53.2159,187.0647,48.9252,268.2811,-0.0010748,-0.00044398,0.0,0 STARLINK-3200,1 49753U 21115AF  21364.58334491 -.00044398  00000-0 -10748-2 0  9993,2 49753  53.2159 187.0647 0001656  48.9252 268.2811 15.40496490  3638,6822.78,93.476,445.775,443.515,0.0
49753.0,STARLINK-3200,PAYLOAD,2021-12-30 20:24:50,15.40471409,0.0001735,53.2166,185.8051,46.712,313.4031,8.4912e-05,3.091e-05,0.0,0 STARLINK-3200,1 49753U 21115AF  21364.85058876  .00003091  00000-0  84912-4 0  9992,2 49753  53.2166 185.8051 0001735  46.7120 313.4031 15.40471409  4450,6822.854,93.478,445.903,443.535,0.0
49753.0,STARLINK-3200,PAYLOAD,2021-12-30 22:00:01,15.40430655,0.0001834,53.2159,185.4958,41.7265,325.1618,0.0010814,0.00044281,0.0,0 STARLINK-3200,1 49753U 21115AF  21364.91668981  .00044281  00000-0  10814-2 0  9997,2 49753  53.2159 185.4958 0001834  41.7265 325.1618 15.40430655  5572,6822.974,93.48,446.091,443.588,0.0
49753.0,STARLINK-3200,PAYLOAD,2021-12-31 12:00:00,15.40458918,0.0001721999999999,53.216,182.7452,47.7588,315.8277,0.00065406,0.00026585,0.0,0 STARLINK-3200,1 49753U 21115AF  21365.50001157  .00026585  00000-0  65406-3 0  9994,2 49753  53.2160 182.7452 0001722  47.7588 315.8277 15.40458918  5662,6822.891,93.479,445.931,443.581,0.0
49753.0,STARLINK-3200,PAYLOAD,2021-12-31 14:00:01,15.40479544,0.0001764,53.2161,182.3529,46.9994,58.9803,-0.00030362,-0.00012876,0.0,0 STARLINK-3200,1 49753U 21115AF  21365.58334491 -.00012876  00000-0 -30362-3 0  9995,2 49753  53.2161 182.3529 0001764  46.9994  58.9803 15.40479544  3646,6822.83,93.477,445.899,443.491,0.0
49753.0,STARLINK-3200,PAYLOAD,2021-12-31 21:19:40,15.40465233,0.0001816,53.2165,180.9139,47.0488,313.067,6.1553e-05,2.129e-05,0.0,0 STARLINK-3200,1 49753U 21115AF  21365.88866002  .00002129  00000-0  61553-4 0  9991,2 49753  53.2165 180.9139 0001816  47.0488 313.0670 15.40465233  4614,6822.871999999999,93.478,445.976,443.49800000000016,0.0
49753.0,STARLINK-3200,PAYLOAD,2022-01-01 06:00:00,15.404494199999998,0.0001730999999999,53.216,179.2116,40.3838,164.8027,1.4328e-06,-3.45e-06,0.0,0 STARLINK-3200,1 49753U 21115AF  22001.25001157 -.00000345  00000-0  14328-5 0  9990,2 49753  53.2160 179.2116 0001731  40.3838 164.8027 15.40449420  5772,6822.919,93.479,445.965,443.603,0.0
49753.0,STARLINK-3200,PAYLOAD,2022-01-01 14:00:01,15.40469781,0.0001761999999999,53.2162,177.6413,44.0384,210.7826,-0.00037785,-0.00015914,0.0,0 STARLINK-3200,1 49753U 21115AF  22001.58335648 -.00015914  00000-0 -37785-3 0  9990,2 49753  53.2162 177.6413 0001762  44.0384 210.7826 15.40469781  3618,6822.859,93.478,445.926,443.522,0.0
49753.0,STARLINK-3200,PAYLOAD,2022-01-01 22:00:00,15.40439145,0.0001992,53.2157,176.0724,38.3352,266.0213,0.0011954,0.00049036,0.0,0 STARLINK-3200,1 49753U 21115AF  22001.91667824  .00049036  00000-0  11954-2 0  9990,2 49753  53.2157 176.0724 0001992  38.3352 266.0213 15.40439145  3633,6822.949000000001,93.48,446.173,443.455,0.0
